{
"type": "FeatureCollection",
"name": "dmr_webpage_table",
"crs": { "type": "name", "properties": { "name": "urn:ogc:def:crs:OGC:1.3:CRS84" } },
"features": [
{ "type": "Feature", "properties": { "DMR Station ID": "PSP19.02", "Forecast Initialized Date": "2026-09-14", "species": "mytilus", "Location": "Castine", "Forecast Start Date": "2026-09-18", "Forecast End Date": "2026-09-24", "Closure-level PSP Probability": "<1%", "Predicted Class": "Low" }, "geometry": { "type": "Point", "coordinates": [ -68.7962, 44.38764 ] } },
{ "type": "Feature", "properties": { "DMR Station ID": "PSP19.15", "Forecast Initialized Date": "2026-09-21", "species": "mytilus", "Location": "Stonington", "Forecast Start Date": "2026-09-25", "Forecast End Date": "2026-10-01", "Closure-level PSP Probability": "<1%", "Predicted Class": "Low" }, "geometry": { "type": "Point", "coordinates": [ -68.65947, 44.15419 ] } }
]
}
